0 FENGYUN 1C DEB
1 36169U 99025DSS 13275.35268296  .00006292  00000-0  14925-2 0  2051
2 36169 097.9649 114.1715 0191725 226.3119 132.1948 14.43661529305973
0 FENGYUN 1C DEB
1 36169U 99025DSS 13276.80817291  .00009758  00000-0  22844-2 0  2078
2 36169 097.9610 115.5431 0194105 220.6800 138.0241 14.43701232306181
0 FENGYUN 1C DEB
1 36169U 99025DSS 13276.80819053  .00006378  00000-0  15056-2 0  2089
2 36169 097.9673 115.5344 0193554 221.5180 137.1677 14.43681645306189
0 FENGYUN 1C DEB
1 36169U 99025DSS 13277.77850764  .00006642  00000-0  15738-2 0  2092
2 36169 097.9588 116.4307 0191640 220.5658 138.1781 14.43700044306324
0 FENGYUN 1C DEB
1 36169U 99025DSS 13281.79826517  .00007297  00000-0  17132-2 0  2107
2 36169 097.9721 120.2185 0194521 205.1253 154.0430 14.43768522306908
0 FENGYUN 1C DEB
1 36169U 99025DSS 13285.33275796  .00007919  00000-0  18695-2 0  2126
2 36169 097.9666 123.5430 0191258 193.6496 166.0425 14.43835186307414
0 FENGYUN 1C DEB
1 36169U 99025DSS 13287.34248509  .00008931  00000-0  20580-2 0  2133
2 36169 097.9856 125.4223 0200548 187.5307 172.5989 14.43883843307704
0 FENGYUN 1C DEB
1 36169U 99025DSS 13288.79771332  .00009083  00000-0  21156-2 0  2148
2 36169 097.9720 126.7709 0195777 184.0370 175.9554 14.43913575307910
0 FENGYUN 1C DEB
1 36169U 99025DSS 13289.35209461  .00009539  00000-0  22034-2 0  2153
2 36169 097.9759 127.2783 0198950 182.7936 177.3978 14.43932811307997
